COSMOS 1408 DEB         
1 50032U 82092RU  26062.74391031  .00007011  00000+0  13910-3 0  9990
2 50032  82.5669 335.4233 0013638 281.1131  78.8585 15.46695589238551
COSMOS 1408 DEB         
1 50058U 82092SW  26062.26553601  .00048656  00000+0  39188-3 0  9993
2 50058  82.6147 344.6661 0014514 144.7017 215.5210 15.70571884240656
COSMOS 1408 DEB         
1 50404U 82092ADS 26062.63024951  .00162464  00000+0  39789-2 0  9990
2 50404  82.1991 131.0897 0127399 275.6814  82.9911 15.32168456224243
COSMOS 1408 DEB         
1 50621U 82092ALR 26062.09704543  .00037116  00000+0  42047-3 0  9990
2 50621  82.5721 350.2014 0022867 208.5864 151.4142 15.61891875235025
