[{"OBJECT_NAME":"COSMOS 1408 DEB","OBJECT_ID":"1982-092RU","EPOCH":"2026-03-03T17:51:13.850784","MEAN_MOTION":15.46695589,"ECCENTRICITY":0.0013638,"INCLINATION":82.5669,"RA_OF_ASC_NODE":335.4233,"ARG_OF_PERICENTER":281.1131,"MEAN_ANOMALY":78.8585,"EPHEMERIS_TYPE":0,"CLASSIFICATION_TYPE":"U","NORAD_CAT_ID":50032,"ELEMENT_SET_NO":999,"REV_AT_EPOCH":23855,"BSTAR":0.0001391,"MEAN_MOTION_DOT":7.011e-5,"MEAN_MOTION_DDOT":0},{"OBJECT_NAME":"COSMOS 1408 DEB","OBJECT_ID":"1982-092SW","EPOCH":"2026-03-03T06:22:22.311264","MEAN_MOTION":15.70571884,"ECCENTRICITY":0.00145143,"INCLINATION":82.6147,"RA_OF_ASC_NODE":344.6661,"ARG_OF_PERICENTER":144.7017,"MEAN_ANOMALY":215.521,"EPHEMERIS_TYPE":0,"CLASSIFICATION_TYPE":"U","NORAD_CAT_ID":50058,"ELEMENT_SET_NO":999,"REV_AT_EPOCH":24065,"BSTAR":0.00039188274,"MEAN_MOTION_DOT":0.00048656,"MEAN_MOTION_DDOT":0},{"OBJECT_NAME":"COSMOS 1408 DEB","OBJECT_ID":"1982-092ADS","EPOCH":"2026-03-03T15:07:33.557664","MEAN_MOTION":15.32168456,"ECCENTRICITY":0.0127399,"INCLINATION":82.1991,"RA_OF_ASC_NODE":131.0897,"ARG_OF_PERICENTER":275.6814,"MEAN_ANOMALY":82.9911,"EPHEMERIS_TYPE":0,"CLASSIFICATION_TYPE":"U","NORAD_CAT_ID":50404,"ELEMENT_SET_NO":999,"REV_AT_EPOCH":22424,"BSTAR":0.0039789,"MEAN_MOTION_DOT":0.00162464,"MEAN_MOTION_DDOT":0},{"OBJECT_NAME":"COSMOS 1408 DEB","OBJECT_ID":"1982-092ALR","EPOCH":"2026-03-03T02:19:44.725152","MEAN_MOTION":15.61891875,"ECCENTRICITY":0.00228674,"INCLINATION":82.5721,"RA_OF_ASC_NODE":350.2014,"ARG_OF_PERICENTER":208.5864,"MEAN_ANOMALY":151.4142,"EPHEMERIS_TYPE":0,"CLASSIFICATION_TYPE":"U","NORAD_CAT_ID":50621,"ELEMENT_SET_NO":999,"REV_AT_EPOCH":23502,"BSTAR":0.00042046731,"MEAN_MOTION_DOT":0.00037116,"MEAN_MOTION_DDOT":0}]
